<?xml version="1.0" encoding="UTF-8"?>
<kml xmlns="http://www.opengis.net/kml/2.2">
  <Document>
    <name>Freyjas Adventure</name>
    <description/>
    <Style id="icon-1899-0288D1-normal">
      <IconStyle>
        <color>ffd18802</color>
        <scale>1</scale>
        <Icon>
          <href>https://www.gstatic.com/mapspro/images/stock/503-wht-blank_maps.png</href>
        </Icon>
        <hotSpot x="32" xunits="pixels" y="64" yunits="insetPixels"/>
      </IconStyle>
      <LabelStyle>
        <scale>0</scale>
      </LabelStyle>
    </Style>
    <Style id="icon-1899-0288D1-highlight">
      <IconStyle>
        <color>ffd18802</color>
        <scale>1</scale>
        <Icon>
          <href>https://www.gstatic.com/mapspro/images/stock/503-wht-blank_maps.png</href>
        </Icon>
        <hotSpot x="32" xunits="pixels" y="64" yunits="insetPixels"/>
      </IconStyle>
      <LabelStyle>
        <scale>1</scale>
      </LabelStyle>
    </Style>
    <StyleMap id="icon-1899-0288D1">
      <Pair>
        <key>normal</key>
        <styleUrl>#icon-1899-0288D1-normal</styleUrl>
      </Pair>
      <Pair>
        <key>highlight</key>
        <styleUrl>#icon-1899-0288D1-highlight</styleUrl>
      </Pair>
    </StyleMap>
    <Style id="icon-1899-0288D1-nodesc-normal">
      <IconStyle>
        <color>ffd18802</color>
        <scale>1</scale>
        <Icon>
          <href>https://www.gstatic.com/mapspro/images/stock/503-wht-blank_maps.png</href>
        </Icon>
        <hotSpot x="32" xunits="pixels" y="64" yunits="insetPixels"/>
      </IconStyle>
      <LabelStyle>
        <scale>0</scale>
      </LabelStyle>
      <BalloonStyle>
        <text><![CDATA[<h3>$[name]</h3>]]></text>
      </BalloonStyle>
    </Style>
    <Style id="icon-1899-0288D1-nodesc-highlight">
      <IconStyle>
        <color>ffd18802</color>
        <scale>1</scale>
        <Icon>
          <href>https://www.gstatic.com/mapspro/images/stock/503-wht-blank_maps.png</href>
        </Icon>
        <hotSpot x="32" xunits="pixels" y="64" yunits="insetPixels"/>
      </IconStyle>
      <LabelStyle>
        <scale>1</scale>
      </LabelStyle>
      <BalloonStyle>
        <text><![CDATA[<h3>$[name]</h3>]]></text>
      </BalloonStyle>
    </Style>
    <StyleMap id="icon-1899-0288D1-nodesc">
      <Pair>
        <key>normal</key>
        <styleUrl>#icon-1899-0288D1-nodesc-normal</styleUrl>
      </Pair>
      <Pair>
        <key>highlight</key>
        <styleUrl>#icon-1899-0288D1-nodesc-highlight</styleUrl>
      </Pair>
    </StyleMap>
    <Style id="icon-1899-DB4436-nodesc-normal">
      <IconStyle>
        <color>ff3644db</color>
        <scale>1</scale>
        <Icon>
          <href>https://www.gstatic.com/mapspro/images/stock/503-wht-blank_maps.png</href>
        </Icon>
        <hotSpot x="32" xunits="pixels" y="64" yunits="insetPixels"/>
      </IconStyle>
      <LabelStyle>
        <scale>0</scale>
      </LabelStyle>
      <BalloonStyle>
        <text><![CDATA[<h3>$[name]</h3>]]></text>
      </BalloonStyle>
    </Style>
    <Style id="icon-1899-DB4436-nodesc-highlight">
      <IconStyle>
        <color>ff3644db</color>
        <scale>1</scale>
        <Icon>
          <href>https://www.gstatic.com/mapspro/images/stock/503-wht-blank_maps.png</href>
        </Icon>
        <hotSpot x="32" xunits="pixels" y="64" yunits="insetPixels"/>
      </IconStyle>
      <LabelStyle>
        <scale>1</scale>
      </LabelStyle>
      <BalloonStyle>
        <text><![CDATA[<h3>$[name]</h3>]]></text>
      </BalloonStyle>
    </Style>
    <StyleMap id="icon-1899-DB4436-nodesc">
      <Pair>
        <key>normal</key>
        <styleUrl>#icon-1899-DB4436-nodesc-normal</styleUrl>
      </Pair>
      <Pair>
        <key>highlight</key>
        <styleUrl>#icon-1899-DB4436-nodesc-highlight</styleUrl>
      </Pair>
    </StyleMap>
    <Style id="line-000000-1200-nodesc-normal">
      <LineStyle>
        <color>ff000000</color>
        <width>1.2</width>
      </LineStyle>
      <BalloonStyle>
        <text><![CDATA[<h3>$[name]</h3>]]></text>
      </BalloonStyle>
    </Style>
    <Style id="line-000000-1200-nodesc-highlight">
      <LineStyle>
        <color>ff000000</color>
        <width>1.8</width>
      </LineStyle>
      <BalloonStyle>
        <text><![CDATA[<h3>$[name]</h3>]]></text>
      </BalloonStyle>
    </Style>
    <StyleMap id="line-000000-1200-nodesc">
      <Pair>
        <key>normal</key>
        <styleUrl>#line-000000-1200-nodesc-normal</styleUrl>
      </Pair>
      <Pair>
        <key>highlight</key>
        <styleUrl>#line-000000-1200-nodesc-highlight</styleUrl>
      </Pair>
    </StyleMap>
    <Style id="line-1267FF-5000-nodesc-normal">
      <LineStyle>
        <color>ffff6712</color>
        <width>5</width>
      </LineStyle>
      <BalloonStyle>
        <text><![CDATA[<h3>$[name]</h3>]]></text>
      </BalloonStyle>
    </Style>
    <Style id="line-1267FF-5000-nodesc-highlight">
      <LineStyle>
        <color>ffff6712</color>
        <width>7.5</width>
      </LineStyle>
      <BalloonStyle>
        <text><![CDATA[<h3>$[name]</h3>]]></text>
      </BalloonStyle>
    </Style>
    <StyleMap id="line-1267FF-5000-nodesc">
      <Pair>
        <key>normal</key>
        <styleUrl>#line-1267FF-5000-nodesc-normal</styleUrl>
      </Pair>
      <Pair>
        <key>highlight</key>
        <styleUrl>#line-1267FF-5000-nodesc-highlight</styleUrl>
      </Pair>
    </StyleMap>
    <Folder>
      <name>Untitled layer</name>
      <Placemark>
        <name>Home</name>
        <styleUrl>#icon-1899-0288D1-nodesc</styleUrl>
        <Point>
          <coordinates>
            174.8018251,-41.2926778,0
          </coordinates>
        </Point>
      </Placemark>
      <Placemark>
        <name>Pou</name>
        <styleUrl>#icon-1899-0288D1-nodesc</styleUrl>
        <Point>
          <coordinates>
            174.7865494,-41.2917341,0
          </coordinates>
        </Point>
      </Placemark>
      <Placemark>
        <name>Mahatma Gandhi Statue</name>
        <styleUrl>#icon-1899-0288D1-nodesc</styleUrl>
        <Point>
          <coordinates>
            174.7798745,-41.2797244,0
          </coordinates>
        </Point>
      </Placemark>
      <Placemark>
        <name>1 Kaiwharawhara Rd</name>
        <styleUrl>#icon-1899-0288D1-nodesc</styleUrl>
        <Point>
          <coordinates>
            174.7893616,-41.2600511,0
          </coordinates>
        </Point>
      </Placemark>
      <Placemark>
        <name>Top of Winchester St</name>
        <styleUrl>#icon-1899-0288D1-nodesc</styleUrl>
        <Point>
          <coordinates>
            174.7905781,-41.2570241,0
          </coordinates>
        </Point>
      </Placemark>
      <Placemark>
        <name>to nicholson road connect</name>
        <styleUrl>#line-000000-1200-nodesc</styleUrl>
        <LineString>
          <tessellate>1</tessellate>
          <coordinates>
            174.7906467,-41.2570025,0
            174.7908015,-41.2569342,0
            174.7910234,-41.2569565,0
            174.7912619,-41.2569882,0
            174.7912696,-41.2566966,0
            174.7915077,-41.2563332,0
            174.7917461,-41.256386,0
            174.7919953,-41.256338,0
            174.7924419,-41.2557169,0
            174.7927277,-41.255487,0
            174.7927455,-41.2552076,0
            174.7924264,-41.2548317,0
            174.7924788,-41.2547399,0
            174.7926953,-41.2547445,0
            174.792846,-41.2543051,0
            174.7929572,-41.2539937,0
            174.7927586,-41.2537097,0
            174.7926272,-41.2533327,0
            174.7927134,-41.2530613,0
            174.7929984,-41.2530464,0
            174.7931899,-41.2530813,0
          </coordinates>
        </LineString>
      </Placemark>
      <Placemark>
        <name>Nicholson Road Connect</name>
        <styleUrl>#icon-1899-0288D1-nodesc</styleUrl>
        <Point>
          <coordinates>
            174.7933735,-41.2530383,0
          </coordinates>
        </Point>
      </Placemark>
      <Placemark>
        <name>Start of Burma Road</name>
        <styleUrl>#icon-1899-0288D1-nodesc</styleUrl>
        <Point>
          <coordinates>
            174.7924074,-41.2418887,0
          </coordinates>
        </Point>
      </Placemark>
      <Placemark>
        <name>Helston Road Bridge</name>
        <styleUrl>#icon-1899-0288D1-nodesc</styleUrl>
        <Point>
          <coordinates>
            174.8083474,-41.2209476,0
          </coordinates>
        </Point>
      </Placemark>
      <Placemark>
        <name>Top of Cedarwood street</name>
        <styleUrl>#icon-1899-0288D1-nodesc</styleUrl>
        <Point>
          <coordinates>
            174.8385676,-41.2167448,0
          </coordinates>
        </Point>
      </Placemark>
      <Placemark>
        <name>279 Horokiwi Rd</name>
        <styleUrl>#icon-1899-0288D1-nodesc</styleUrl>
        <Point>
          <coordinates>
            174.8481361,-41.2115619,0
          </coordinates>
        </Point>
      </Placemark>
      <Placemark>
        <name>Horokiwi Viewpoint</name>
        <styleUrl>#icon-1899-0288D1-nodesc</styleUrl>
        <Point>
          <coordinates>
            174.8575239,-41.1859895,0
          </coordinates>
        </Point>
      </Placemark>
      <Placemark>
        <name>walking track to belmont trig</name>
        <styleUrl>#line-000000-1200-nodesc</styleUrl>
        <LineString>
          <tessellate>1</tessellate>
          <coordinates>
            174.8572118,-41.1873602,0
            174.85748,-41.1874207,0
            174.8577321,-41.1870857,0
            174.8587031,-41.1870453,0
            174.8591322,-41.1875176,0
            174.8597116,-41.1874571,0
            174.8602749,-41.1877033,0
            174.8606987,-41.188317,0
            174.8609481,-41.1884088,0
            174.8611814,-41.1885088,0
            174.8616455,-41.1886722,0
            174.8617233,-41.1882907,0
            174.8614497,-41.188104,0
            174.8613692,-41.1878487,0
            174.8616938,-41.1875701,0
            174.8622812,-41.1876993,0
            174.8629114,-41.18756,0
            174.863515,-41.187453,0
            174.8639065,-41.1879536,0
            174.8640621,-41.1882039,0
            174.8640862,-41.1884563,0
            174.8642753,-41.1883619,0
            174.8645047,-41.1885572,0
            174.8649405,-41.1888397,0
            174.8649285,-41.1887479,0
            174.864777,-41.1884926,0
            174.8647549,-41.1882256,0
            174.8648279,-41.1879314,0
            174.8649567,-41.1878406,0
            174.865294,-41.1877447,0
            174.8654059,-41.1873662,0
            174.8654489,-41.1870766,0
            174.8654998,-41.187007,0
            174.8657064,-41.1869605,0
            174.8659129,-41.1869403,0
            174.8665056,-41.1872764,0
            174.8669375,-41.1879213,0
            174.8671052,-41.188097,0
            174.8674773,-41.1876458,0
            174.8677998,-41.1875186,0
            174.8681076,-41.1874546,0
            174.8685361,-41.1870907,0
            174.8691101,-41.1867869,0
            174.8691557,-41.1867627,0
            174.8692831,-41.1868273,0
            174.8694313,-41.186793,0
            174.869551,-41.1863368,0
            174.8698517,-41.1859442,0
            174.8698752,-41.1856066,0
            174.8697546,-41.1855418,0
            174.8696676,-41.1854428,0
            174.8697055,-41.185061,0
            174.8698074,-41.184626,0
            174.8701575,-41.1844933,0
            174.8704948,-41.1844371,0
            174.8705477,-41.1843102,0
            174.8704599,-41.1841492,0
            174.8705799,-41.183966,0
            174.8713712,-41.1838928,0
            174.8715683,-41.1836096,0
            174.8714791,-41.1835532,0
            174.8713293,-41.1835749,0
            174.8712195,-41.1835519,0
            174.8711726,-41.1833759,0
            174.8713611,-41.1833217,0
            174.8716806,-41.1828697,0
            174.8720348,-41.1824146,0
            174.8724446,-41.1821704,0
            174.8727595,-41.1822955,0
            174.8727895,-41.1825953,0
            174.8729024,-41.1827442,0
            174.8731467,-41.1828277,0
            174.8730783,-41.1830587,0
            174.8734331,-41.1829199,0
            174.8732631,-41.1832461,0
            174.8733427,-41.1832729,0
            174.8737065,-41.1830595,0
            174.8740288,-41.1830227,0
            174.8740222,-41.183067,0
            174.8738607,-41.1831235,0
            174.8737662,-41.1832304,0
            174.8738065,-41.1834836,0
            174.8739823,-41.1834714,0
          </coordinates>
        </LineString>
      </Placemark>
      <Placemark>
        <name>Belmont trig to belmont trig carpark</name>
        <styleUrl>#line-000000-1200-nodesc</styleUrl>
        <LineString>
          <tessellate>1</tessellate>
          <coordinates>
            174.8731729,-41.1827909,0
            174.8730515,-41.1826442,0
            174.8730998,-41.1824148,0
            174.8731186,-41.1820203,0
            174.8729153,-41.1815902,0
            174.8732544,-41.1818864,0
            174.8733512,-41.1823111,0
            174.8734176,-41.1825187,0
            174.8736712,-41.1824222,0
            174.8738884,-41.182458,0
            174.8743163,-41.1821155,0
            174.8752534,-41.1818461,0
            174.875337,-41.1821707,0
            174.876116,-41.1819605,0
            174.8766135,-41.18212,0
            174.8771143,-41.1823361,0
            174.8768796,-41.182848,0
            174.8767761,-41.1834715,0
            174.877708,-41.1831772,0
            174.8779972,-41.1837201,0
            174.8781735,-41.1840627,0
            174.8789075,-41.1840836,0
            174.8795916,-41.1840445,0
            174.8799273,-41.1846388,0
            174.8804891,-41.1844723,0
            174.8811285,-41.1847256,0
            174.8811141,-41.1839301,0
            174.8820977,-41.184444,0
            174.8824423,-41.1848151,0
            174.8827065,-41.1852928,0
            174.8829981,-41.1855011,0
            174.8831873,-41.1860461,0
            174.8840383,-41.1864543,0
            174.8846602,-41.186239,0
            174.8849467,-41.1855373,0
            174.8845354,-41.1851817,0
            174.8846984,-41.1850709,0
            174.8850245,-41.1847681,0
            174.8853745,-41.1848852,0
            174.8858917,-41.1845391,0
            174.8864005,-41.184509,0
            174.8866154,-41.1843314,0
            174.8872778,-41.1843671,0
            174.8877981,-41.1841184,0
            174.8886683,-41.1838506,0
            174.8894822,-41.1840528,0
            174.8892671,-41.1836432,0
          </coordinates>
        </LineString>
      </Placemark>
      <Placemark>
        <name><![CDATA["bridge" across stream]]></name>
        <styleUrl>#icon-1899-0288D1-nodesc</styleUrl>
        <Point>
          <coordinates>
            174.8650111,-41.1878909,0
          </coordinates>
        </Point>
      </Placemark>
      <Placemark>
        <name>Belmont Trig</name>
        <styleUrl>#icon-1899-0288D1-nodesc</styleUrl>
        <Point>
          <coordinates>
            174.8739385,-41.1834083,0
          </coordinates>
        </Point>
      </Placemark>
      <Placemark>
        <name>belmont trig track carpark</name>
        <styleUrl>#icon-1899-0288D1-nodesc</styleUrl>
        <Point>
          <coordinates>
            174.8895385,-41.1835667,0
          </coordinates>
        </Point>
      </Placemark>
      <Placemark>
        <name>4 cottle park drive</name>
        <description>turn left</description>
        <styleUrl>#icon-1899-0288D1</styleUrl>
        <Point>
          <coordinates>
            174.8889345,-41.1972073,0
          </coordinates>
        </Point>
      </Placemark>
      <Placemark>
        <name>278 Normandale Rd (the farm)</name>
        <styleUrl>#icon-1899-0288D1-nodesc</styleUrl>
        <Point>
          <coordinates>
            174.9016444,-41.1923105,0
          </coordinates>
        </Point>
      </Placemark>
      <Placemark>
        <name>campsite to school</name>
        <styleUrl>#line-000000-1200-nodesc</styleUrl>
        <LineString>
          <tessellate>1</tessellate>
          <coordinates>
            174.9036948,-41.1926046,0
            174.9039216,-41.193173,0
            174.9048137,-41.1938362,0
            174.9051907,-41.1933732,0
            174.905557,-41.1936812,0
            174.9057991,-41.1939848,0
          </coordinates>
        </LineString>
      </Placemark>
      <Placemark>
        <name>Raphael House</name>
        <styleUrl>#icon-1899-0288D1-nodesc</styleUrl>
        <Point>
          <coordinates>
            174.9061682,-41.1940782,0
          </coordinates>
        </Point>
      </Placemark>
    </Folder>
    <Folder>
      <name>Directions from belmont trig track carpark to 278 Normandale Rd (the farm)</name>
      <Placemark>
        <name>Directions from belmont trig track carpark to 278 Normandale Rd (the farm)</name>
        <styleUrl>#line-1267FF-5000-nodesc</styleUrl>
        <LineString>
          <tessellate>1</tessellate>
          <coordinates>
            174.88958,-41.18356,0
            174.88958,-41.18358,0
            174.88962,-41.18366,0
            174.88963,-41.18367,0
            174.88969,-41.18375,0
            174.88985,-41.18396,0
            174.88994,-41.18409,0
            174.88994,-41.1841,0
            174.88994,-41.18427,0
            174.88987,-41.18449,0
            174.88986,-41.18454,0
            174.88986,-41.18456,0
            174.88988,-41.18465,0
            174.8899,-41.18468,0
            174.88996,-41.18477,0
            174.88998,-41.18484,0
            174.89003,-41.18496,0
            174.89004,-41.18502,0
            174.89006,-41.1852,0
            174.89006,-41.18527,0
            174.89005,-41.18538,0
            174.89,-41.18545,0
            174.88995,-41.1855,0
            174.8897,-41.1857,0
            174.88958,-41.18581,0
            174.88957,-41.18582,0
            174.88957,-41.18583,0
            174.88956,-41.18591,0
            174.88958,-41.18596,0
            174.88965,-41.18614,0
            174.88965,-41.18616,0
            174.88966,-41.18632,0
            174.8896,-41.18662,0
            174.88954,-41.18673,0
            174.88943,-41.18688,0
            174.88937,-41.18697,0
            174.88926,-41.18733,0
            174.88917,-41.18746,0
            174.88897,-41.18762,0
            174.8889,-41.18767,0
            174.88885,-41.18775,0
            174.88885,-41.18783,0
            174.88887,-41.18791,0
            174.88891,-41.18806,0
            174.88894,-41.18818,0
            174.88898,-41.18831,0
            174.88903,-41.18844,0
            174.88905,-41.18848,0
            174.88906,-41.18858,0
            174.88906,-41.18866,0
            174.88907,-41.18882,0
            174.88909,-41.18891,0
            174.88911,-41.18897,0
            174.88915,-41.18904,0
            174.88919,-41.1891,0
            174.88922,-41.18912,0
            174.88925,-41.18914,0
            174.88931,-41.18918,0
            174.88935,-41.18922,0
            174.88938,-41.18927,0
            174.88939,-41.18931,0
            174.8894,-41.18936,0
            174.88939,-41.18942,0
            174.88937,-41.18946,0
            174.88931,-41.18956,0
            174.88923,-41.18965,0
            174.88911,-41.18978,0
            174.88906,-41.18989,0
            174.88905,-41.18992,0
            174.88904,-41.19002,0
            174.88899,-41.19016,0
            174.88894,-41.19032,0
            174.88894,-41.19036,0
            174.88895,-41.19039,0
            174.88897,-41.19045,0
            174.88899,-41.19049,0
            174.88903,-41.19052,0
            174.88909,-41.19059,0
            174.88919,-41.19068,0
            174.88926,-41.19075,0
            174.88928,-41.19078,0
            174.88929,-41.19082,0
            174.8893,-41.19086,0
            174.8893,-41.19095,0
            174.88937,-41.19111,0
            174.88942,-41.19118,0
            174.88949,-41.19127,0
            174.88951,-41.19133,0
            174.88952,-41.19139,0
            174.88952,-41.19148,0
            174.88951,-41.19159,0
            174.88952,-41.19167,0
            174.88952,-41.19172,0
            174.88953,-41.19175,0
            174.88954,-41.19179,0
            174.88954,-41.19184,0
            174.88954,-41.19188,0
            174.88954,-41.19189,0
            174.88954,-41.19191,0
            174.88953,-41.19192,0
            174.88951,-41.19194,0
            174.8895,-41.19194,0
            174.88936,-41.19204,0
            174.88928,-41.19209,0
            174.88923,-41.19212,0
            174.88917,-41.19217,0
            174.88911,-41.19224,0
            174.88908,-41.19228,0
            174.88907,-41.19231,0
            174.88906,-41.19235,0
            174.88906,-41.19239,0
            174.88908,-41.19245,0
            174.88912,-41.19254,0
            174.88917,-41.19264,0
            174.88931,-41.19281,0
            174.88949,-41.19307,0
            174.88959,-41.1932,0
            174.88961,-41.19325,0
            174.88962,-41.19328,0
            174.88961,-41.1933,0
            174.8896,-41.19332,0
            174.88959,-41.19334,0
            174.88956,-41.19336,0
            174.88953,-41.19338,0
            174.88943,-41.19345,0
            174.88938,-41.19349,0
            174.88936,-41.19353,0
            174.88935,-41.19356,0
            174.88935,-41.19359,0
            174.88936,-41.19361,0
            174.88936,-41.19363,0
            174.88943,-41.19379,0
            174.88944,-41.19382,0
            174.88946,-41.19396,0
            174.88947,-41.19411,0
            174.88947,-41.19414,0
            174.88947,-41.19415,0
            174.88946,-41.19417,0
            174.88944,-41.19419,0
            174.88941,-41.19422,0
            174.88938,-41.19424,0
            174.88935,-41.19424,0
            174.88929,-41.19426,0
            174.8892,-41.19427,0
            174.88899,-41.19434,0
            174.88882,-41.19439,0
            174.88875,-41.19441,0
            174.88869,-41.19444,0
            174.88865,-41.19447,0
            174.88864,-41.19448,0
            174.88851,-41.19467,0
            174.88843,-41.19478,0
            174.88843,-41.19479,0
            174.8884,-41.19485,0
            174.88837,-41.1949,0
            174.88836,-41.19494,0
            174.88834,-41.19498,0
            174.8883,-41.19502,0
            174.88826,-41.19506,0
            174.88813,-41.19514,0
            174.88809,-41.19518,0
            174.88806,-41.19522,0
            174.88804,-41.19528,0
            174.88802,-41.19533,0
            174.88802,-41.19537,0
            174.88803,-41.19541,0
            174.88805,-41.19546,0
            174.8882,-41.19576,0
            174.88821,-41.19578,0
            174.88823,-41.19581,0
            174.88825,-41.19583,0
            174.88827,-41.19586,0
            174.88827,-41.19587,0
            174.88828,-41.1959,0
            174.88828,-41.19593,0
            174.88828,-41.19596,0
            174.88826,-41.19599,0
            174.88825,-41.19601,0
            174.88824,-41.19602,0
            174.88823,-41.19604,0
            174.88822,-41.19605,0
            174.8882,-41.19607,0
            174.88817,-41.19608,0
            174.88813,-41.1961,0
            174.8881,-41.19612,0
            174.88808,-41.19615,0
            174.88805,-41.19618,0
            174.88803,-41.19622,0
            174.88802,-41.19635,0
            174.88803,-41.19649,0
            174.88806,-41.19664,0
            174.88809,-41.19675,0
            174.88815,-41.19685,0
            174.88817,-41.1969,0
            174.88818,-41.1969,0
            174.8882,-41.19693,0
            174.88824,-41.19696,0
            174.88828,-41.19699,0
            174.88835,-41.19703,0
            174.88837,-41.19704,0
            174.88855,-41.19712,0
            174.88884,-41.19725,0
            174.88897,-41.19729,0
            174.88897,-41.19721,0
            174.88898,-41.19711,0
            174.88898,-41.1969,0
            174.889,-41.19665,0
            174.88903,-41.19657,0
            174.88904,-41.19653,0
            174.88907,-41.19647,0
            174.8891,-41.19641,0
            174.88911,-41.1964,0
            174.88926,-41.19625,0
            174.88946,-41.19607,0
            174.88953,-41.19601,0
            174.88963,-41.19593,0
            174.88994,-41.19577,0
            174.88996,-41.19575,0
            174.89022,-41.19562,0
            174.89036,-41.19554,0
            174.89053,-41.19544,0
            174.8906,-41.1954,0
            174.89066,-41.19535,0
            174.89075,-41.19525,0
            174.89087,-41.19511,0
            174.89094,-41.19502,0
            174.891,-41.19493,0
            174.8911,-41.19483,0
            174.89116,-41.1948,0
            174.89121,-41.19477,0
            174.89131,-41.19473,0
            174.89138,-41.19472,0
            174.89148,-41.19472,0
            174.89188,-41.19475,0
            174.89207,-41.19475,0
            174.89221,-41.19474,0
            174.8924,-41.19471,0
            174.89258,-41.19467,0
            174.89266,-41.19465,0
            174.89273,-41.19462,0
            174.89294,-41.19454,0
            174.89333,-41.19437,0
            174.89344,-41.19433,0
            174.89356,-41.19429,0
            174.89375,-41.19425,0
            174.89395,-41.19423,0
            174.89397,-41.19423,0
            174.89409,-41.19422,0
            174.89418,-41.1942,0
            174.89428,-41.19416,0
            174.89437,-41.19412,0
            174.8944,-41.1941,0
            174.8946,-41.194,0
            174.895,-41.1938,0
            174.8952,-41.1937,0
            174.8954,-41.19361,0
            174.89552,-41.19355,0
            174.8956,-41.1935,0
            174.89568,-41.19343,0
            174.89575,-41.19334,0
            174.8958,-41.19327,0
            174.89601,-41.19296,0
            174.89609,-41.19289,0
            174.89614,-41.19284,0
            174.89624,-41.19274,0
            174.89643,-41.19261,0
            174.8968,-41.19235,0
            174.89692,-41.19225,0
            174.89702,-41.19216,0
            174.89718,-41.192,0
            174.8973,-41.19189,0
            174.89742,-41.1918,0
            174.89752,-41.19173,0
            174.89762,-41.1917,0
            174.89775,-41.19167,0
            174.89792,-41.19167,0
            174.89806,-41.1917,0
            174.89825,-41.1918,0
            174.89843,-41.19188,0
            174.89863,-41.19198,0
            174.89872,-41.19202,0
            174.89883,-41.19208,0
            174.89915,-41.19224,0
            174.89926,-41.19229,0
            174.89958,-41.19202,0
            174.89974,-41.19189,0
            174.89992,-41.19173,0
            174.90004,-41.19164,0
            174.90017,-41.19157,0
            174.90023,-41.19155,0
            174.90027,-41.19155,0
            174.90038,-41.19155,0
            174.90051,-41.19156,0
            174.9007,-41.19159,0
            174.90103,-41.19168,0
            174.90117,-41.19173,0
            174.90121,-41.19176,0
            174.90125,-41.19178,0
            174.9013,-41.19182,0
            174.90133,-41.19188,0
            174.9015,-41.19224,0
            174.90152,-41.1923,0
            174.90164,-41.1923,0
          </coordinates>
        </LineString>
      </Placemark>
      <Placemark>
        <name>belmont trig track carpark</name>
        <styleUrl>#icon-1899-DB4436-nodesc</styleUrl>
        <Point>
          <coordinates>
            174.8895758,-41.1835637,0
          </coordinates>
        </Point>
      </Placemark>
      <Placemark>
        <name>4 cottle park drive</name>
        <styleUrl>#icon-1899-DB4436-nodesc</styleUrl>
        <Point>
          <coordinates>
            174.8889749,-41.1972074,0
          </coordinates>
        </Point>
      </Placemark>
      <Placemark>
        <name>278 Normandale Rd (the farm)</name>
        <styleUrl>#icon-1899-DB4436-nodesc</styleUrl>
        <Point>
          <coordinates>
            174.9016442,-41.1923002,0
          </coordinates>
        </Point>
      </Placemark>
    </Folder>
    <Folder>
      <name>Directions from Home to Top of Winchester St</name>
      <Placemark>
        <name>Directions from Home to Top of Winchester St</name>
        <styleUrl>#line-1267FF-5000-nodesc</styleUrl>
        <LineString>
          <tessellate>1</tessellate>
          <coordinates>
            174.80206,-41.29264,0
            174.80207,-41.2927,0
            174.80211,-41.29276,0
            174.80215,-41.29279,0
            174.80218,-41.29282,0
            174.8022,-41.29284,0
            174.80224,-41.29288,0
            174.80229,-41.2929,0
            174.80237,-41.29293,0
            174.80261,-41.29296,0
            174.80265,-41.29296,0
            174.80272,-41.29297,0
            174.80278,-41.29298,0
            174.80284,-41.29302,0
            174.80287,-41.29304,0
            174.80294,-41.29312,0
            174.80302,-41.2932,0
            174.80308,-41.29324,0
            174.80313,-41.29327,0
            174.80314,-41.29328,0
            174.8032,-41.2933,0
            174.80327,-41.29331,0
            174.80337,-41.29331,0
            174.8034,-41.29331,0
            174.80334,-41.29324,0
            174.80342,-41.2932,0
            174.80337,-41.29315,0
            174.80329,-41.29308,0
            174.8031,-41.29293,0
            174.80299,-41.29282,0
            174.80292,-41.29277,0
            174.8028,-41.2927,0
            174.80275,-41.29265,0
            174.80272,-41.29263,0
            174.80268,-41.29257,0
            174.80262,-41.29249,0
            174.80258,-41.29242,0
            174.80255,-41.29236,0
            174.80254,-41.29232,0
            174.80254,-41.29228,0
            174.80254,-41.29222,0
            174.80255,-41.29214,0
            174.80258,-41.29205,0
            174.80262,-41.29195,0
            174.80269,-41.29181,0
            174.80274,-41.29172,0
            174.80278,-41.29167,0
            174.80286,-41.2916,0
            174.80295,-41.29155,0
            174.80303,-41.29152,0
            174.80316,-41.29149,0
            174.80341,-41.29143,0
            174.80349,-41.29142,0
            174.80362,-41.29138,0
            174.80365,-41.29137,0
            174.80375,-41.29135,0
            174.8038,-41.29134,0
            174.80388,-41.29129,0
            174.80393,-41.29124,0
            174.80397,-41.29118,0
            174.80397,-41.29115,0
            174.80397,-41.29112,0
            174.80396,-41.29106,0
            174.8039,-41.29094,0
            174.80383,-41.29086,0
            174.80377,-41.29078,0
            174.80376,-41.29078,0
            174.80361,-41.29063,0
            174.80339,-41.2904,0
            174.80331,-41.29028,0
            174.80327,-41.2901,0
            174.80328,-41.28988,0
            174.80328,-41.28984,0
            174.80332,-41.28957,0
            174.80334,-41.28945,0
            174.80334,-41.28944,0
            174.80336,-41.28938,0
            174.80342,-41.2893,0
            174.80348,-41.28925,0
            174.80361,-41.28915,0
            174.80376,-41.28904,0
            174.80384,-41.28896,0
            174.80389,-41.28891,0
            174.80392,-41.28883,0
            174.80393,-41.2887,0
            174.80393,-41.28863,0
            174.80391,-41.28847,0
            174.80388,-41.28833,0
            174.80387,-41.28828,0
            174.80384,-41.28802,0
            174.80384,-41.2878,0
            174.80384,-41.28769,0
            174.80385,-41.28762,0
            174.80385,-41.28744,0
            174.80387,-41.28726,0
            174.8039,-41.28706,0
            174.80394,-41.2869,0
            174.80398,-41.28671,0
            174.80403,-41.28658,0
            174.80404,-41.28648,0
            174.80406,-41.28642,0
            174.80405,-41.28638,0
            174.80406,-41.28633,0
            174.80405,-41.28627,0
            174.80403,-41.28622,0
            174.80398,-41.28614,0
            174.80393,-41.28608,0
            174.80388,-41.28605,0
            174.80382,-41.28601,0
            174.80377,-41.28598,0
            174.80368,-41.28595,0
            174.80363,-41.28594,0
            174.80358,-41.28594,0
            174.80352,-41.28593,0
            174.80344,-41.28594,0
            174.80333,-41.28596,0
            174.80325,-41.28599,0
            174.80315,-41.28606,0
            174.80294,-41.28628,0
            174.80283,-41.28636,0
            174.80273,-41.28641,0
            174.80261,-41.28645,0
            174.80232,-41.28655,0
            174.80227,-41.28656,0
            174.80216,-41.2866,0
            174.80206,-41.28666,0
            174.80204,-41.28667,0
            174.80198,-41.28673,0
            174.80192,-41.2868,0
            174.80183,-41.28688,0
            174.80177,-41.28692,0
            174.80175,-41.28694,0
            174.80172,-41.28696,0
            174.80157,-41.28702,0
            174.80114,-41.28719,0
            174.80108,-41.28726,0
            174.80075,-41.28739,0
            174.80047,-41.28751,0
            174.80031,-41.2876,0
            174.8002,-41.28768,0
            174.80011,-41.28778,0
            174.80006,-41.28785,0
            174.79992,-41.28801,0
            174.79988,-41.28805,0
            174.79985,-41.28808,0
            174.79978,-41.28814,0
            174.79972,-41.28818,0
            174.79947,-41.28833,0
            174.79935,-41.28839,0
            174.79914,-41.2885,0
            174.79908,-41.28853,0
            174.79896,-41.28858,0
            174.79887,-41.28862,0
            174.79853,-41.28878,0
            174.79785,-41.28905,0
            174.7976,-41.28916,0
            174.79754,-41.28919,0
            174.79751,-41.28922,0
            174.79746,-41.28927,0
            174.79741,-41.28934,0
            174.79724,-41.2897,0
            174.79707,-41.29003,0
            174.79702,-41.29011,0
            174.79692,-41.29024,0
            174.79675,-41.29049,0
            174.79665,-41.29061,0
            174.79656,-41.2907,0
            174.79647,-41.29077,0
            174.79637,-41.29084,0
            174.79632,-41.29087,0
            174.79626,-41.29089,0
            174.79616,-41.29093,0
            174.7961,-41.29094,0
            174.79579,-41.29101,0
            174.79566,-41.29103,0
            174.79513,-41.29114,0
            174.79488,-41.2912,0
            174.79464,-41.29124,0
            174.7944,-41.29128,0
            174.7943,-41.2913,0
            174.79421,-41.29132,0
            174.79409,-41.29133,0
            174.79396,-41.29134,0
            174.79379,-41.29134,0
            174.79363,-41.29135,0
            174.79348,-41.29136,0
            174.7933,-41.29136,0
            174.79322,-41.29136,0
            174.7931,-41.29136,0
            174.79305,-41.29135,0
            174.79297,-41.29135,0
            174.79285,-41.29133,0
            174.79279,-41.29132,0
            174.7927,-41.2913,0
            174.79253,-41.29125,0
            174.79235,-41.29118,0
            174.79231,-41.29117,0
            174.79188,-41.29097,0
            174.7918,-41.29094,0
            174.79141,-41.29074,0
            174.79133,-41.29071,0
            174.79131,-41.2907,0
            174.79128,-41.29069,0
            174.79122,-41.29069,0
            174.79114,-41.29069,0
            174.79103,-41.29071,0
            174.79091,-41.29076,0
            174.79053,-41.29091,0
            174.79044,-41.29095,0
            174.79013,-41.29108,0
            174.78996,-41.29115,0
            174.78951,-41.29134,0
            174.78913,-41.2915,0
            174.78905,-41.29153,0
            174.78891,-41.29157,0
            174.78878,-41.29159,0
            174.78868,-41.2916,0
            174.78862,-41.29161,0
            174.78831,-41.29164,0
            174.78826,-41.29164,0
            174.78808,-41.29165,0
            174.78797,-41.29166,0
            174.7878,-41.29167,0
            174.78773,-41.29168,0
            174.78749,-41.29169,0
            174.7871,-41.29172,0
            174.787,-41.29172,0
            174.78695,-41.29171,0
            174.78679,-41.29172,0
            174.78669,-41.29173,0
            174.78662,-41.29175,0
            174.78653,-41.29178,0
            174.78644,-41.29169,0
            174.78634,-41.29166,0
            174.78611,-41.29149,0
            174.786,-41.29141,0
            174.78591,-41.29134,0
            174.78587,-41.29131,0
            174.78582,-41.29127,0
            174.7858,-41.29125,0
            174.78578,-41.29122,0
            174.78578,-41.29118,0
            174.78578,-41.29116,0
            174.78579,-41.29113,0
            174.7858,-41.29109,0
            174.78436,-41.29093,0
            174.7841,-41.29089,0
            174.78376,-41.29086,0
            174.78353,-41.29084,0
            174.78348,-41.29061,0
            174.78347,-41.29052,0
            174.78345,-41.29036,0
            174.78343,-41.29028,0
            174.78335,-41.29003,0
            174.7833,-41.28973,0
            174.78329,-41.2897,0
            174.78328,-41.28968,0
            174.78327,-41.28966,0
            174.78325,-41.28964,0
            174.78322,-41.28962,0
            174.7832,-41.2896,0
            174.78317,-41.28958,0
            174.78315,-41.28956,0
            174.78312,-41.28954,0
            174.78309,-41.2895,0
            174.78307,-41.28948,0
            174.78305,-41.28945,0
            174.78302,-41.28943,0
            174.78299,-41.28942,0
            174.78297,-41.28942,0
            174.78294,-41.28942,0
            174.78254,-41.28945,0
            174.78233,-41.28946,0
            174.78215,-41.28949,0
            174.78149,-41.28956,0
            174.781,-41.2896,0
            174.78068,-41.28962,0
            174.78063,-41.28962,0
            174.78053,-41.28963,0
            174.78042,-41.28964,0
            174.78038,-41.28964,0
            174.78035,-41.28963,0
            174.78032,-41.28963,0
            174.7803,-41.28961,0
            174.78028,-41.28951,0
            174.7802,-41.28901,0
            174.78014,-41.28865,0
            174.78012,-41.28851,0
            174.78009,-41.28841,0
            174.78008,-41.28837,0
            174.78006,-41.28833,0
            174.78001,-41.28829,0
            174.77988,-41.28819,0
            174.77972,-41.28806,0
            174.77961,-41.28796,0
            174.77953,-41.28792,0
            174.77944,-41.28789,0
            174.77943,-41.28786,0
            174.77943,-41.28783,0
            174.77942,-41.28779,0
            174.7794,-41.28776,0
            174.77938,-41.28769,0
            174.77931,-41.28732,0
            174.77924,-41.28697,0
            174.77921,-41.28679,0
            174.7792,-41.28674,0
            174.77913,-41.28637,0
            174.77906,-41.28627,0
            174.77906,-41.28624,0
            174.77907,-41.28621,0
            174.77908,-41.28618,0
            174.7791,-41.28616,0
            174.77913,-41.28612,0
            174.77926,-41.286,0
            174.77928,-41.28599,0
            174.77929,-41.28597,0
            174.77932,-41.28595,0
            174.77933,-41.28594,0
            174.77934,-41.28594,0
            174.77937,-41.28593,0
            174.77942,-41.28592,0
            174.77944,-41.28592,0
            174.77945,-41.28591,0
            174.77946,-41.28591,0
            174.77947,-41.2859,0
            174.77948,-41.28589,0
            174.77949,-41.28588,0
            174.77949,-41.28587,0
            174.77949,-41.28585,0
            174.77948,-41.28575,0
            174.7794,-41.28524,0
            174.77935,-41.28497,0
            174.77932,-41.28492,0
            174.7793,-41.28487,0
            174.77926,-41.28483,0
            174.77924,-41.28479,0
            174.77923,-41.28476,0
            174.77922,-41.28464,0
            174.77918,-41.2844,0
            174.77914,-41.28417,0
            174.77912,-41.28406,0
            174.77912,-41.28405,0
            174.77911,-41.28404,0
            174.77911,-41.28403,0
            174.7791,-41.28403,0
            174.77909,-41.28402,0
            174.77908,-41.28402,0
            174.77907,-41.28401,0
            174.77906,-41.28401,0
            174.77904,-41.28401,0
            174.77903,-41.284,0
            174.77901,-41.28399,0
            174.77901,-41.28398,0
            174.77901,-41.28397,0
            174.77903,-41.28393,0
            174.77904,-41.2839,0
            174.77905,-41.28388,0
            174.77917,-41.2836,0
            174.77927,-41.28339,0
            174.77937,-41.28315,0
            174.77943,-41.28304,0
            174.77944,-41.28301,0
            174.77945,-41.283,0
            174.77945,-41.28298,0
            174.77943,-41.2829,0
            174.77941,-41.2828,0
            174.77939,-41.28263,0
            174.77938,-41.28258,0
            174.77937,-41.28256,0
            174.77933,-41.28241,0
            174.77932,-41.28232,0
            174.7793,-41.28222,0
            174.77928,-41.28216,0
            174.77923,-41.2821,0
            174.77933,-41.28201,0
            174.77942,-41.28197,0
            174.77965,-41.28175,0
            174.77976,-41.28168,0
            174.77974,-41.28158,0
            174.77971,-41.28147,0
            174.77969,-41.28138,0
            174.77968,-41.2813,0
            174.77969,-41.28123,0
            174.77982,-41.2811,0
            174.77986,-41.28105,0
            174.78003,-41.28086,0
            174.78056,-41.28025,0
            174.78055,-41.28023,0
            174.78046,-41.28014,0
            174.78037,-41.28008,0
            174.78042,-41.28008,0
            174.7804,-41.28006,0
            174.78039,-41.28006,0
            174.78038,-41.28005,0
            174.78037,-41.28005,0
            174.78036,-41.28005,0
            174.78035,-41.28005,0
            174.78033,-41.28005,0
            174.78031,-41.28006,0
            174.7803,-41.28007,0
            174.78027,-41.2801,0
            174.78018,-41.28004,0
            174.78011,-41.28,0
            174.78006,-41.27997,0
            174.78,-41.27993,0
            174.77992,-41.27995,0
            174.77975,-41.27985,0
            174.77951,-41.27971,0
            174.77951,-41.27966,0
            174.77931,-41.27953,0
            174.77933,-41.27951,0
            174.77934,-41.27948,0
            174.77935,-41.27943,0
            174.77935,-41.2794,0
            174.77934,-41.27936,0
            174.77937,-41.27933,0
            174.77949,-41.27914,0
            174.77952,-41.2791,0
            174.77956,-41.27905,0
            174.77967,-41.2789,0
            174.7798,-41.27873,0
            174.77984,-41.27867,0
            174.77995,-41.27851,0
            174.78019,-41.27819,0
            174.78027,-41.27812,0
            174.78041,-41.27794,0
            174.78044,-41.2779,0
            174.78046,-41.27787,0
            174.78047,-41.27783,0
            174.7805,-41.27776,0
            174.78052,-41.27772,0
            174.78053,-41.2777,0
            174.78058,-41.2776,0
            174.78088,-41.27704,0
            174.78097,-41.27687,0
            174.7811,-41.27666,0
            174.78118,-41.27656,0
            174.78123,-41.2765,0
            174.78137,-41.27638,0
            174.78158,-41.27623,0
            174.78163,-41.2762,0
            174.78172,-41.27615,0
            174.78186,-41.27609,0
            174.78201,-41.27603,0
            174.7821,-41.276,0
            174.78242,-41.27589,0
            174.78251,-41.27586,0
            174.78267,-41.2758,0
            174.78279,-41.27574,0
            174.78295,-41.27565,0
            174.7831,-41.27556,0
            174.78327,-41.27543,0
            174.78335,-41.27536,0
            174.78336,-41.27534,0
            174.7834,-41.27531,0
            174.78351,-41.27515,0
            174.78357,-41.27504,0
            174.78364,-41.27482,0
            174.78368,-41.27472,0
            174.78369,-41.27466,0
            174.7837,-41.27459,0
            174.78369,-41.27453,0
            174.78368,-41.27445,0
            174.78365,-41.27438,0
            174.78362,-41.27431,0
            174.78332,-41.27382,0
            174.78309,-41.27346,0
            174.78282,-41.27304,0
            174.78266,-41.27279,0
            174.78253,-41.27257,0
            174.78249,-41.27251,0
            174.78238,-41.27232,0
            174.78195,-41.27149,0
            174.78182,-41.27124,0
            174.78168,-41.27096,0
            174.7815,-41.2706,0
            174.78133,-41.27025,0
            174.78129,-41.27018,0
            174.78122,-41.27003,0
            174.78116,-41.2699,0
            174.78111,-41.26973,0
            174.78109,-41.26964,0
            174.78103,-41.26946,0
            174.781,-41.26935,0
            174.78098,-41.26925,0
            174.78098,-41.26922,0
            174.78098,-41.2691,0
            174.781,-41.26896,0
            174.78103,-41.26875,0
            174.78107,-41.26855,0
            174.78112,-41.26838,0
            174.78115,-41.26827,0
            174.78119,-41.26817,0
            174.78122,-41.2681,0
            174.78127,-41.26798,0
            174.78141,-41.26764,0
            174.78148,-41.26749,0
            174.78152,-41.26741,0
            174.7816,-41.2673,0
            174.78163,-41.26726,0
            174.78168,-41.2672,0
            174.78172,-41.26715,0
            174.78187,-41.26699,0
            174.78197,-41.26687,0
            174.78207,-41.26678,0
            174.78213,-41.26673,0
            174.78216,-41.2667,0
            174.78222,-41.26665,0
            174.78223,-41.26663,0
            174.7829,-41.26603,0
            174.78296,-41.26597,0
            174.78333,-41.26563,0
            174.78345,-41.26552,0
            174.78364,-41.26533,0
            174.78392,-41.26504,0
            174.78406,-41.2649,0
            174.78438,-41.26458,0
            174.78445,-41.26455,0
            174.78448,-41.26455,0
            174.7845,-41.26455,0
            174.78452,-41.26454,0
            174.78454,-41.26454,0
            174.78458,-41.26453,0
            174.78471,-41.26441,0
            174.78476,-41.26436,0
            174.78484,-41.26433,0
            174.7849,-41.26432,0
            174.78498,-41.26432,0
            174.78499,-41.26432,0
            174.78509,-41.2643,0
            174.78513,-41.26429,0
            174.78515,-41.26428,0
            174.78516,-41.26428,0
            174.78517,-41.26427,0
            174.78518,-41.26425,0
            174.78519,-41.26424,0
            174.7853,-41.26409,0
            174.78546,-41.26384,0
            174.78566,-41.26355,0
            174.78571,-41.26346,0
            174.78571,-41.26345,0
            174.78571,-41.26344,0
            174.78571,-41.26342,0
            174.7857,-41.26341,0
            174.78573,-41.26339,0
            174.78592,-41.26321,0
            174.7861,-41.26307,0
            174.78619,-41.263,0
            174.78645,-41.26281,0
            174.7866,-41.26271,0
            174.78677,-41.26259,0
            174.7868,-41.26257,0
            174.78682,-41.26254,0
            174.78687,-41.26247,0
            174.78734,-41.26217,0
            174.78751,-41.26205,0
            174.78781,-41.26183,0
            174.78801,-41.26168,0
            174.78842,-41.26136,0
            174.78867,-41.26116,0
            174.78875,-41.2611,0
            174.7891,-41.26081,0
            174.78922,-41.2607,0
            174.78931,-41.26062,0
            174.78937,-41.26057,0
            174.78941,-41.26053,0
            174.78951,-41.26043,0
            174.78954,-41.2604,0
            174.78959,-41.26036,0
            174.7898,-41.26018,0
            174.78983,-41.26015,0
            174.78974,-41.26009,0
            174.78967,-41.26015,0
            174.78955,-41.26007,0
            174.78967,-41.26015,0
            174.78974,-41.26009,0
            174.78956,-41.25998,0
            174.7895,-41.25994,0
            174.78945,-41.2599,0
            174.78938,-41.25985,0
            174.78955,-41.25968,0
            174.78985,-41.25939,0
            174.79003,-41.25923,0
            174.79001,-41.25921,0
            174.78996,-41.25918,0
            174.78984,-41.25914,0
            174.78983,-41.25914,0
            174.78977,-41.25909,0
            174.78974,-41.25907,0
            174.78969,-41.25902,0
            174.7896,-41.25901,0
            174.78956,-41.25901,0
            174.78954,-41.259,0
            174.7896,-41.25898,0
            174.78966,-41.25896,0
            174.78961,-41.2589,0
            174.78957,-41.25882,0
            174.78945,-41.2586,0
            174.78941,-41.25854,0
            174.78936,-41.25844,0
            174.7892,-41.25816,0
            174.7892,-41.25812,0
            174.78922,-41.25809,0
            174.7893,-41.25801,0
            174.78938,-41.25794,0
            174.78981,-41.25756,0
            174.78991,-41.25747,0
            174.78993,-41.25747,0
            174.78994,-41.25747,0
            174.78995,-41.25748,0
            174.78999,-41.2575,0
            174.79002,-41.25752,0
            174.79003,-41.25753,0
            174.79005,-41.25753,0
            174.79006,-41.25754,0
            174.79008,-41.25754,0
            174.7901,-41.25755,0
            174.79011,-41.25754,0
            174.79014,-41.25754,0
            174.79016,-41.25753,0
            174.79018,-41.25751,0
            174.79019,-41.25751,0
            174.79024,-41.25747,0
            174.79042,-41.25733,0
            174.79046,-41.25729,0
            174.7905,-41.25724,0
            174.79054,-41.25719,0
            174.79058,-41.25715,0
            174.79061,-41.25712,0
            174.79063,-41.2571,0
            174.79063,-41.25707,0
            174.79062,-41.25704,0
            174.7906,-41.257,0
          </coordinates>
        </LineString>
      </Placemark>
      <Placemark>
        <name>Home</name>
        <styleUrl>#icon-1899-DB4436-nodesc</styleUrl>
        <Point>
          <coordinates>
            174.802055,-41.2926449,0
          </coordinates>
        </Point>
      </Placemark>
      <Placemark>
        <name>Mahatma Gandhi Statue</name>
        <styleUrl>#icon-1899-DB4436-nodesc</styleUrl>
        <Point>
          <coordinates>
            174.7797497,-41.2798488,0
          </coordinates>
        </Point>
      </Placemark>
      <Placemark>
        <name>1 Kaiwharawhara Rd</name>
        <styleUrl>#icon-1899-DB4436-nodesc</styleUrl>
        <Point>
          <coordinates>
            174.7895525,-41.2600676,0
          </coordinates>
        </Point>
      </Placemark>
      <Placemark>
        <name>Top of Winchester St</name>
        <styleUrl>#icon-1899-DB4436-nodesc</styleUrl>
        <Point>
          <coordinates>
            174.7905999,-41.2570024,0
          </coordinates>
        </Point>
      </Placemark>
    </Folder>
    <Folder>
      <name>Directions from Nicholson Road Connect to Horokiwi Viewpoint</name>
      <Placemark>
        <name>Directions from Nicholson Road Connect to Horokiwi Viewpoint</name>
        <styleUrl>#line-1267FF-5000-nodesc</styleUrl>
        <LineString>
          <tessellate>1</tessellate>
          <coordinates>
            174.79337,-41.25303,0
            174.79342,-41.253,0
            174.79359,-41.2528,0
            174.79367,-41.25274,0
            174.79378,-41.25272,0
            174.79387,-41.25272,0
            174.79395,-41.25273,0
            174.79401,-41.25276,0
            174.79411,-41.25287,0
            174.79416,-41.25291,0
            174.79438,-41.253,0
            174.79443,-41.253,0
            174.79452,-41.25296,0
            174.79456,-41.25293,0
            174.79459,-41.25288,0
            174.7946,-41.25285,0
            174.79461,-41.25271,0
            174.79462,-41.25269,0
            174.79462,-41.25261,0
            174.79464,-41.25255,0
            174.79464,-41.25253,0
            174.79466,-41.2525,0
            174.79466,-41.25249,0
            174.79472,-41.25239,0
            174.79486,-41.25225,0
            174.7949,-41.25216,0
            174.79493,-41.252,0
            174.79496,-41.25193,0
            174.79499,-41.2519,0
            174.79522,-41.25175,0
            174.79524,-41.25172,0
            174.79527,-41.25169,0
            174.7953,-41.25159,0
            174.79531,-41.25151,0
            174.79529,-41.25135,0
            174.79529,-41.25124,0
            174.79526,-41.25121,0
            174.79451,-41.25101,0
            174.7941,-41.25084,0
            174.79395,-41.25076,0
            174.79401,-41.2507,0
            174.79281,-41.24999,0
            174.79234,-41.24981,0
            174.79159,-41.24939,0
            174.79129,-41.24918,0
            174.79117,-41.24908,0
            174.79113,-41.24902,0
            174.7911,-41.24892,0
            174.79112,-41.24858,0
            174.79111,-41.24845,0
            174.79107,-41.24837,0
            174.79102,-41.2483,0
            174.79096,-41.24826,0
            174.7902,-41.24804,0
            174.78987,-41.24788,0
            174.78978,-41.24776,0
            174.78967,-41.24747,0
            174.78966,-41.24738,0
            174.78967,-41.24732,0
            174.78994,-41.24644,0
            174.78993,-41.24617,0
            174.78991,-41.24608,0
            174.78993,-41.24604,0
            174.78987,-41.24594,0
            174.78987,-41.2459,0
            174.78991,-41.24585,0
            174.78992,-41.24582,0
            174.78993,-41.24581,0
            174.78992,-41.24578,0
            174.7912,-41.24428,0
            174.79128,-41.24417,0
            174.79246,-41.24201,0
            174.79235,-41.24197,0
            174.79237,-41.24193,0
            174.79261,-41.24158,0
            174.7927,-41.24147,0
            174.79277,-41.24142,0
            174.7929,-41.24135,0
            174.79425,-41.2408,0
            174.7943,-41.24077,0
            174.79438,-41.2407,0
            174.79448,-41.24075,0
            174.79494,-41.24014,0
            174.79524,-41.23986,0
            174.79546,-41.23969,0
            174.79674,-41.23893,0
            174.79678,-41.23892,0
            174.79687,-41.23888,0
            174.79695,-41.23886,0
            174.79699,-41.23883,0
            174.79713,-41.23879,0
            174.79737,-41.23868,0
            174.7974,-41.23865,0
            174.79745,-41.23862,0
            174.79752,-41.23856,0
            174.79757,-41.23849,0
            174.79761,-41.23845,0
            174.79801,-41.2377,0
            174.79803,-41.23763,0
            174.79808,-41.23752,0
            174.79814,-41.2373,0
            174.79814,-41.23724,0
            174.79815,-41.23719,0
            174.7982,-41.23604,0
            174.79819,-41.23542,0
            174.79817,-41.23522,0
            174.79818,-41.23432,0
            174.79824,-41.23338,0
            174.79825,-41.23195,0
            174.79827,-41.23183,0
            174.79832,-41.23168,0
            174.79839,-41.23136,0
            174.79847,-41.23117,0
            174.79906,-41.23037,0
            174.79912,-41.23031,0
            174.79944,-41.23007,0
            174.80013,-41.22962,0
            174.80031,-41.22954,0
            174.80033,-41.22954,0
            174.80041,-41.22951,0
            174.80053,-41.22928,0
            174.80147,-41.22816,0
            174.80162,-41.22796,0
            174.80176,-41.22772,0
            174.80212,-41.22687,0
            174.80213,-41.22683,0
            174.80239,-41.22619,0
            174.80259,-41.22586,0
            174.80337,-41.22498,0
            174.80348,-41.22483,0
            174.80351,-41.2248,0
            174.8038,-41.22436,0
            174.80401,-41.224,0
            174.80434,-41.22358,0
            174.80461,-41.22328,0
            174.80482,-41.22311,0
            174.80593,-41.22235,0
            174.80598,-41.22233,0
            174.80603,-41.22233,0
            174.80618,-41.22237,0
            174.80623,-41.22234,0
            174.80649,-41.22255,0
            174.80662,-41.22244,0
            174.80664,-41.22243,0
            174.80665,-41.22242,0
            174.80672,-41.22239,0
            174.80678,-41.22239,0
            174.80723,-41.22244,0
            174.80723,-41.22261,0
            174.80724,-41.22259,0
            174.80733,-41.22261,0
            174.80736,-41.22257,0
            174.80739,-41.22241,0
            174.80753,-41.2219,0
            174.80753,-41.22189,0
            174.80756,-41.22178,0
            174.80758,-41.22174,0
            174.80763,-41.22172,0
            174.8077,-41.22172,0
            174.80783,-41.22167,0
            174.80786,-41.22164,0
            174.80832,-41.22137,0
            174.80837,-41.22131,0
            174.80841,-41.22131,0
            174.80853,-41.22127,0
            174.8087,-41.22124,0
            174.80861,-41.22121,0
            174.80833,-41.22103,0
            174.80831,-41.22101,0
            174.80833,-41.22103,0
            174.80861,-41.22121,0
            174.80878,-41.22128,0
            174.80963,-41.22153,0
            174.80983,-41.22154,0
            174.81096,-41.22171,0
            174.8111,-41.2218,0
            174.81144,-41.22192,0
            174.81389,-41.22225,0
            174.81406,-41.22224,0
            174.81447,-41.22216,0
            174.81474,-41.22206,0
            174.81496,-41.22194,0
            174.81509,-41.22184,0
            174.81524,-41.22168,0
            174.81533,-41.22155,0
            174.81557,-41.22112,0
            174.81566,-41.22104,0
            174.81581,-41.22096,0
            174.81598,-41.22092,0
            174.81615,-41.22093,0
            174.81634,-41.22099,0
            174.81733,-41.22147,0
            174.8188,-41.22196,0
            174.81898,-41.22206,0
            174.81937,-41.22239,0
            174.81951,-41.22246,0
            174.81962,-41.2225,0
            174.81988,-41.22254,0
            174.82013,-41.22252,0
            174.82116,-41.22224,0
            174.82143,-41.22221,0
            174.82174,-41.22222,0
            174.82328,-41.22243,0
            174.82337,-41.22242,0
            174.82352,-41.22283,0
            174.82361,-41.22281,0
            174.82362,-41.22283,0
            174.82369,-41.22308,0
            174.82385,-41.22335,0
            174.82459,-41.22309,0
            174.82514,-41.22294,0
            174.82518,-41.223,0
            174.82566,-41.22284,0
            174.82586,-41.22283,0
            174.82597,-41.22285,0
            174.82636,-41.22296,0
            174.82648,-41.22297,0
            174.82668,-41.22296,0
            174.82692,-41.22291,0
            174.82697,-41.22289,0
            174.82693,-41.22282,0
            174.82868,-41.22232,0
            174.82891,-41.22221,0
            174.82899,-41.22216,0
            174.82919,-41.22207,0
            174.82975,-41.22177,0
            174.82994,-41.2217,0
            174.83008,-41.22167,0
            174.83082,-41.22159,0
            174.83103,-41.22155,0
            174.83115,-41.22151,0
            174.83127,-41.22144,0
            174.83144,-41.22125,0
            174.83148,-41.22118,0
            174.83151,-41.22109,0
            174.8315,-41.22084,0
            174.83148,-41.22076,0
            174.83144,-41.22033,0
            174.83147,-41.21994,0
            174.83148,-41.21989,0
            174.83148,-41.21986,0
            174.8315,-41.2198,0
            174.8315,-41.21978,0
            174.83153,-41.21972,0
            174.83155,-41.21966,0
            174.83168,-41.21945,0
            174.83203,-41.21911,0
            174.83215,-41.21896,0
            174.8322,-41.21888,0
            174.83222,-41.21887,0
            174.83227,-41.21877,0
            174.83232,-41.2187,0
            174.83238,-41.21857,0
            174.83245,-41.21834,0
            174.83246,-41.21826,0
            174.83247,-41.21823,0
            174.83252,-41.21792,0
            174.83259,-41.2177,0
            174.83266,-41.21754,0
            174.83275,-41.21738,0
            174.83286,-41.21723,0
            174.83294,-41.21727,0
            174.83296,-41.21727,0
            174.83296,-41.21728,0
            174.83298,-41.21728,0
            174.83299,-41.21727,0
            174.83303,-41.21727,0
            174.83312,-41.21731,0
            174.83325,-41.21734,0
            174.83343,-41.21743,0
            174.83356,-41.21747,0
            174.83373,-41.2175,0
            174.83396,-41.2175,0
            174.83417,-41.21748,0
            174.83553,-41.21708,0
            174.83556,-41.21708,0
            174.83586,-41.21703,0
            174.83607,-41.21702,0
            174.83607,-41.21703,0
            174.83608,-41.21703,0
            174.83608,-41.21704,0
            174.83609,-41.21704,0
            174.83609,-41.21705,0
            174.8361,-41.21705,0
            174.8361,-41.21706,0
            174.83612,-41.21706,0
            174.83612,-41.21707,0
            174.83615,-41.21707,0
            174.83616,-41.21708,0
            174.83624,-41.21708,0
            174.83624,-41.21707,0
            174.83627,-41.21707,0
            174.83628,-41.21706,0
            174.83629,-41.21706,0
            174.83629,-41.21705,0
            174.8363,-41.21705,0
            174.8363,-41.21704,0
            174.83631,-41.21704,0
            174.83633,-41.21702,0
            174.83634,-41.21695,0
            174.83716,-41.2171,0
            174.83752,-41.21711,0
            174.83787,-41.21705,0
            174.83809,-41.21697,0
            174.83877,-41.21665,0
            174.83938,-41.21647,0
            174.83942,-41.21645,0
            174.84003,-41.21627,0
            174.84029,-41.21617,0
            174.84038,-41.21611,0
            174.84055,-41.21592,0
            174.84056,-41.21589,0
            174.84056,-41.21583,0
            174.84054,-41.21578,0
            174.84052,-41.21567,0
            174.84052,-41.21563,0
            174.84053,-41.21559,0
            174.84056,-41.21556,0
            174.84109,-41.21525,0
            174.84153,-41.21481,0
            174.8417,-41.21468,0
            174.84175,-41.21466,0
            174.84161,-41.2146,0
            174.84155,-41.2146,0
            174.84152,-41.21461,0
            174.84143,-41.21466,0
            174.8414,-41.21467,0
            174.84132,-41.21467,0
            174.84131,-41.21466,0
            174.84128,-41.21466,0
            174.84126,-41.21464,0
            174.84126,-41.21463,0
            174.84125,-41.21461,0
            174.84127,-41.21431,0
            174.84132,-41.21413,0
            174.84134,-41.21409,0
            174.84141,-41.21405,0
            174.84145,-41.21404,0
            174.84152,-41.214,0
            174.84154,-41.21397,0
            174.84158,-41.21393,0
            174.84158,-41.21392,0
            174.84159,-41.2139,0
            174.8416,-41.21385,0
            174.84157,-41.21369,0
            174.84162,-41.21345,0
            174.84171,-41.21318,0
            174.84174,-41.21313,0
            174.84179,-41.21308,0
            174.8419,-41.21294,0
            174.84192,-41.21293,0
            174.84202,-41.21284,0
            174.84238,-41.21265,0
            174.84277,-41.21241,0
            174.84287,-41.21237,0
            174.8429,-41.21235,0
            174.84327,-41.2122,0
            174.84328,-41.21219,0
            174.84337,-41.21215,0
            174.84347,-41.21209,0
            174.84347,-41.21208,0
            174.84369,-41.21196,0
            174.8439,-41.2119,0
            174.84398,-41.21189,0
            174.84414,-41.21185,0
            174.84456,-41.2118,0
            174.84465,-41.21177,0
            174.84466,-41.21177,0
            174.84471,-41.21172,0
            174.8449,-41.21161,0
            174.84495,-41.21159,0
            174.84502,-41.21153,0
            174.84503,-41.21151,0
            174.84504,-41.21145,0
            174.84508,-41.21134,0
            174.84513,-41.21129,0
            174.84521,-41.21126,0
            174.84531,-41.21124,0
            174.84583,-41.21128,0
            174.84624,-41.21135,0
            174.84638,-41.21136,0
            174.84641,-41.21137,0
            174.84764,-41.21152,0
            174.84773,-41.21152,0
            174.84797,-41.21159,0
            174.84807,-41.21159,0
            174.84814,-41.21157,0
            174.84817,-41.21157,0
            174.84803,-41.21142,0
            174.84795,-41.2113,0
            174.84793,-41.21128,0
            174.84788,-41.21118,0
            174.84785,-41.21114,0
            174.84778,-41.21097,0
            174.84777,-41.21091,0
            174.84777,-41.21086,0
            174.84778,-41.2108,0
            174.84782,-41.21069,0
            174.8479,-41.21059,0
            174.84799,-41.21051,0
            174.84802,-41.21044,0
            174.84802,-41.21039,0
            174.84798,-41.21029,0
            174.84797,-41.21024,0
            174.84797,-41.21014,0
            174.84798,-41.2101,0
            174.84801,-41.21007,0
            174.84803,-41.21003,0
            174.84813,-41.20994,0
            174.84837,-41.20985,0
            174.84842,-41.20984,0
            174.84857,-41.20978,0
            174.84864,-41.20972,0
            174.84871,-41.20961,0
            174.84872,-41.20957,0
            174.84872,-41.20953,0
            174.84868,-41.20932,0
            174.84869,-41.20914,0
            174.84875,-41.20889,0
            174.84875,-41.20884,0
            174.84874,-41.2088,0
            174.84874,-41.20872,0
            174.84876,-41.20863,0
            174.8488,-41.20853,0
            174.84889,-41.20839,0
            174.84894,-41.20825,0
            174.84894,-41.20821,0
            174.84895,-41.20818,0
            174.84895,-41.20813,0
            174.84901,-41.20806,0
            174.84906,-41.20755,0
            174.84908,-41.20746,0
            174.84912,-41.20737,0
            174.84917,-41.20718,0
            174.84911,-41.20712,0
            174.84909,-41.20709,0
            174.84907,-41.20704,0
            174.84887,-41.20678,0
            174.84872,-41.20646,0
            174.84868,-41.2064,0
            174.84859,-41.20614,0
            174.84857,-41.20596,0
            174.84851,-41.2058,0
            174.84838,-41.2056,0
            174.84833,-41.2055,0
            174.8483,-41.20535,0
            174.84831,-41.20526,0
            174.8486,-41.2047,0
            174.84861,-41.20462,0
            174.8486,-41.2043,0
            174.84861,-41.20422,0
            174.84864,-41.20413,0
            174.84868,-41.20406,0
            174.84874,-41.20399,0
            174.84916,-41.20363,0
            174.84921,-41.20356,0
            174.84922,-41.20352,0
            174.84924,-41.20348,0
            174.84925,-41.20341,0
            174.84927,-41.20334,0
            174.84929,-41.20316,0
            174.84933,-41.20298,0
            174.84939,-41.20282,0
            174.84952,-41.2023,0
            174.84962,-41.20213,0
            174.84964,-41.20208,0
            174.84964,-41.20202,0
            174.84962,-41.20197,0
            174.84953,-41.20188,0
            174.8494,-41.20179,0
            174.84936,-41.20178,0
            174.84928,-41.20178,0
            174.84923,-41.2018,0
            174.8492,-41.20182,0
            174.84917,-41.20185,0
            174.84914,-41.2019,0
            174.84905,-41.202,0
            174.84894,-41.20207,0
            174.84884,-41.2021,0
            174.84877,-41.20211,0
            174.84869,-41.20211,0
            174.84864,-41.2021,0
            174.84861,-41.20208,0
            174.84852,-41.20204,0
            174.84848,-41.20203,0
            174.8483,-41.20188,0
            174.84824,-41.20178,0
            174.84822,-41.20173,0
            174.84818,-41.20167,0
            174.84817,-41.20163,0
            174.84817,-41.20154,0
            174.84819,-41.20147,0
            174.84821,-41.20144,0
            174.84827,-41.20138,0
            174.84839,-41.2013,0
            174.8485,-41.2012,0
            174.84851,-41.20115,0
            174.84852,-41.20113,0
            174.84852,-41.20106,0
            174.8485,-41.20102,0
            174.84845,-41.20095,0
            174.84842,-41.20092,0
            174.84837,-41.2009,0
            174.84834,-41.20088,0
            174.84833,-41.20088,0
            174.84822,-41.20085,0
            174.84812,-41.20078,0
            174.84806,-41.2007,0
            174.84791,-41.20031,0
            174.84782,-41.20019,0
            174.84777,-41.20015,0
            174.84774,-41.20011,0
            174.8477,-41.20003,0
            174.8477,-41.19999,0
            174.84773,-41.19992,0
            174.8478,-41.19983,0
            174.84793,-41.19974,0
            174.84826,-41.19961,0
            174.84832,-41.19956,0
            174.84834,-41.19952,0
            174.84834,-41.19949,0
            174.8483,-41.19943,0
            174.84823,-41.19937,0
            174.84817,-41.19934,0
            174.84793,-41.19916,0
            174.8479,-41.19907,0
            174.8479,-41.19903,0
            174.84792,-41.19891,0
            174.84801,-41.19879,0
            174.84816,-41.19866,0
            174.84831,-41.19856,0
            174.84843,-41.19851,0
            174.84859,-41.19841,0
            174.84862,-41.19838,0
            174.84864,-41.19833,0
            174.84864,-41.19829,0
            174.84863,-41.19826,0
            174.8486,-41.19823,0
            174.84855,-41.19821,0
            174.84849,-41.19817,0
            174.84847,-41.19815,0
            174.84845,-41.19809,0
            174.84845,-41.19799,0
            174.84848,-41.19789,0
            174.84849,-41.19781,0
            174.8485,-41.19778,0
            174.84835,-41.19744,0
            174.84831,-41.19737,0
            174.84828,-41.19723,0
            174.84828,-41.19716,0
            174.84833,-41.19702,0
            174.84836,-41.19697,0
            174.84841,-41.19692,0
            174.84848,-41.19688,0
            174.84858,-41.19684,0
            174.84869,-41.19682,0
            174.84907,-41.19682,0
            174.84918,-41.1968,0
            174.8492,-41.19679,0
            174.84922,-41.19679,0
            174.84923,-41.19677,0
            174.84925,-41.19675,0
            174.84926,-41.19671,0
            174.84926,-41.19668,0
            174.84925,-41.19666,0
            174.84925,-41.19664,0
            174.84919,-41.19652,0
            174.84913,-41.19636,0
            174.84911,-41.19633,0
            174.84899,-41.19622,0
            174.84895,-41.19616,0
            174.84893,-41.19611,0
            174.84891,-41.19599,0
            174.84891,-41.19593,0
            174.84894,-41.19578,0
            174.84901,-41.19566,0
            174.84908,-41.19558,0
            174.84918,-41.19549,0
            174.8493,-41.19544,0
            174.84954,-41.19543,0
            174.84991,-41.19547,0
            174.85005,-41.19545,0
            174.85031,-41.19535,0
            174.85048,-41.19521,0
            174.85073,-41.19486,0
            174.85088,-41.19468,0
            174.85089,-41.19468,0
            174.85096,-41.19461,0
            174.85103,-41.19457,0
            174.85111,-41.19454,0
            174.85112,-41.19453,0
            174.85136,-41.19445,0
            174.8514,-41.19443,0
            174.85154,-41.1944,0
            174.85162,-41.1944,0
            174.85173,-41.19443,0
            174.85177,-41.19445,0
            174.85185,-41.19451,0
            174.8519,-41.19457,0
            174.85199,-41.19465,0
            174.8521,-41.19471,0
            174.85223,-41.19475,0
            174.85232,-41.19475,0
            174.85245,-41.19472,0
            174.85255,-41.19466,0
            174.85269,-41.19453,0
            174.85286,-41.19431,0
            174.85297,-41.19419,0
            174.85318,-41.19401,0
            174.85338,-41.19381,0
            174.85354,-41.19369,0
            174.85359,-41.1936,0
            174.85359,-41.19357,0
            174.85355,-41.1935,0
            174.85338,-41.19334,0
            174.85334,-41.19326,0
            174.85334,-41.19319,0
            174.85336,-41.19312,0
            174.85344,-41.193,0
            174.85362,-41.19283,0
            174.85365,-41.19279,0
            174.85365,-41.19277,0
            174.85366,-41.19276,0
            174.85366,-41.1927,0
            174.8536,-41.19259,0
            174.85355,-41.19252,0
            174.85355,-41.1925,0
            174.85354,-41.19247,0
            174.85354,-41.19242,0
            174.85355,-41.19239,0
            174.85369,-41.19219,0
            174.8537,-41.19173,0
            174.85371,-41.19168,0
            174.85375,-41.1916,0
            174.8538,-41.19155,0
            174.85388,-41.1915,0
            174.85416,-41.19141,0
            174.85427,-41.19135,0
            174.85431,-41.19131,0
            174.85432,-41.19129,0
            174.85432,-41.19128,0
            174.85431,-41.19126,0
            174.85431,-41.19124,0
            174.85414,-41.19109,0
            174.85405,-41.19086,0
            174.854,-41.19067,0
            174.85397,-41.1906,0
            174.85396,-41.19055,0
            174.85394,-41.19051,0
            174.85396,-41.19043,0
            174.85402,-41.19036,0
            174.85411,-41.19029,0
            174.85421,-41.19018,0
            174.85442,-41.19002,0
            174.85483,-41.1896,0
            174.85494,-41.18952,0
            174.85509,-41.18944,0
            174.85521,-41.18936,0
            174.85544,-41.18925,0
            174.85546,-41.18922,0
            174.85548,-41.18917,0
            174.85549,-41.18912,0
            174.85552,-41.18904,0
            174.85556,-41.18898,0
            174.85567,-41.18876,0
            174.85571,-41.18864,0
            174.85585,-41.18841,0
            174.85597,-41.18828,0
            174.85599,-41.18827,0
            174.85601,-41.18822,0
            174.85601,-41.18821,0
            174.85603,-41.18815,0
            174.85605,-41.18792,0
            174.85612,-41.18774,0
            174.85624,-41.18752,0
            174.85627,-41.18748,0
            174.85636,-41.18743,0
            174.85646,-41.1874,0
            174.8565,-41.1874,0
            174.85654,-41.18739,0
            174.85659,-41.18739,0
            174.85663,-41.18738,0
            174.85666,-41.18738,0
            174.85681,-41.18733,0
            174.8569,-41.18733,0
            174.85709,-41.18731,0
            174.8571,-41.1873,0
            174.85711,-41.1873,0
            174.85713,-41.18728,0
            174.85713,-41.18717,0
            174.85715,-41.18706,0
            174.85718,-41.18701,0
            174.85727,-41.18694,0
            174.85741,-41.18692,0
            174.85757,-41.18693,0
            174.85763,-41.18692,0
            174.85765,-41.18691,0
            174.85766,-41.18691,0
            174.85767,-41.1869,0
            174.85769,-41.18684,0
            174.85769,-41.18679,0
            174.85771,-41.18665,0
            174.85771,-41.18656,0
            174.8577,-41.1865,0
            174.85761,-41.18629,0
            174.85759,-41.18622,0
            174.85755,-41.18618,0
            174.85762,-41.18612,0
            174.85761,-41.18607,0
            174.85759,-41.18605,0
            174.85759,-41.18604,0
            174.85758,-41.18603,0
            174.85751,-41.18601,0
          </coordinates>
        </LineString>
      </Placemark>
      <Placemark>
        <name>Nicholson Road Connect</name>
        <styleUrl>#icon-1899-DB4436-nodesc</styleUrl>
        <Point>
          <coordinates>
            174.7933678,-41.2530307,0
          </coordinates>
        </Point>
      </Placemark>
      <Placemark>
        <name>Start of Burma Road</name>
        <styleUrl>#icon-1899-DB4436-nodesc</styleUrl>
        <Point>
          <coordinates>
            174.792403,-41.241887,0
          </coordinates>
        </Point>
      </Placemark>
      <Placemark>
        <name>Helston Road Bridge</name>
        <styleUrl>#icon-1899-DB4436-nodesc</styleUrl>
        <Point>
          <coordinates>
            174.8083087,-41.2210135,0
          </coordinates>
        </Point>
      </Placemark>
      <Placemark>
        <name>Top of Cedarwood street</name>
        <styleUrl>#icon-1899-DB4436-nodesc</styleUrl>
        <Point>
          <coordinates>
            174.8385645,-41.2167409,0
          </coordinates>
        </Point>
      </Placemark>
      <Placemark>
        <name>279 Horokiwi Rd</name>
        <styleUrl>#icon-1899-DB4436-nodesc</styleUrl>
        <Point>
          <coordinates>
            174.8481405,-41.211574,0
          </coordinates>
        </Point>
      </Placemark>
      <Placemark>
        <name>Horokiwi Viewpoint</name>
        <styleUrl>#icon-1899-DB4436-nodesc</styleUrl>
        <Point>
          <coordinates>
            174.857513,-41.1860098,0
          </coordinates>
        </Point>
      </Placemark>
    </Folder>
    <Folder>
      <name>public toilets</name>
      <Placemark>
        <name>waitangi public toilets</name>
        <styleUrl>#icon-1899-0288D1-nodesc</styleUrl>
        <Point>
          <coordinates>
            174.7859172,-41.2919008,0
          </coordinates>
        </Point>
      </Placemark>
      <Placemark>
        <name>train station, public toilets</name>
        <styleUrl>#icon-1899-0288D1-nodesc</styleUrl>
        <Point>
          <coordinates>
            174.780237,-41.2791289,0
          </coordinates>
        </Point>
      </Placemark>
      <Placemark>
        <name>johnsonville public toilets</name>
        <styleUrl>#icon-1899-0288D1-nodesc</styleUrl>
        <Point>
          <coordinates>
            174.8048966,-41.2227586,0
          </coordinates>
        </Point>
      </Placemark>
      <Placemark>
        <name>khandallah public toilets</name>
        <styleUrl>#icon-1899-0288D1-nodesc</styleUrl>
        <Point>
          <coordinates>
            174.7912729,-41.246735,0
          </coordinates>
        </Point>
      </Placemark>
    </Folder>
  </Document>
</kml>
